CSS (TIANHE)            
1 48274U 21035A   23286.51608538  .00053551  00000+0  61111-3 0  9994
2 48274  41.4711 155.4780 0001985  66.3350 293.7697 15.61345207140339
